COSMOS 2433 (720)       
1 32275U 07052A   24019.05599990 -.00000070  00000+0  00000+0 0  9991
2 32275  65.9861 345.3854 0004742 271.7320  88.2108  2.13103902126307
COSMOS 2432 (719)       
1 32276U 07052B   24019.31361712 -.00000072  00000+0  00000+0 0  9992
2 32276  66.0006 345.4879 0012132 320.5636 183.6772  2.13103186126338
COSMOS 2434 (721)       
1 32393U 07065A   24020.60476682  .00000112  00000+0  00000+0 0  9997
2 32393  64.3261 221.6117 0005115  74.5999 285.1825  2.13103092125043
COSMOS 2436 (723)       
1 32395U 07065C   24020.50970748  .00000112  00000+0  00000+0 0  9990
2 32395  64.3350 221.6778 0017288   9.3479  52.8456  2.13102762125008
COSMOS 2456 (730)       
1 36111U 09070A   24020.40467103 -.00000051  00000+0  00000+0 0  9996
2 36111  64.5462 101.0644 0004054 295.6543  67.6820  2.13098889109708
COSMOS 2457 (733)       
1 36112U 09070B   24020.29653692 -.00000050  00000+0  00000+0 0  9993
2 36112  64.5305 100.9302 0004863 175.6015 236.6555  2.13101081109705
COSMOS 2460 (732)       
1 36402U 10007C   24020.38457869 -.00000080  00000+0  00000+0 0  9998
2 36402  65.8451 344.0331 0002655 308.2198 161.6409  2.13106151108009
COSMOS 2476 (744)       
1 37867U 11064A   24020.50830914 -.00000050  00000+0  00000+0 0  9995
2 37867  64.8233 102.6404 0023719 236.0517 117.3167  2.13101590 95037
COSMOS 2477 (745)       
1 37868U 11064B   24020.36484771 -.00000050  00000+0  00000+0 0  9996
2 37868  64.8303 102.7162 0020903 236.8120 184.2971  2.13101372 95032
COSMOS 2475 (743)       
1 37869U 11064C   24020.43035208 -.00000050  00000+0  00000+0 0  9992
2 37869  64.8376 102.7275 0025508 252.1156 177.8452  2.13101558 95043
COSMOS 2485 (747)       
1 39155U 13019A   24020.45886596 -.00000050  00000+0  00000+0 0  9990
2 39155  64.9824 103.1951 0024048 232.2114 127.6022  2.13101605 83551
COSMOS 2492 (754)       
1 39620U 14012A   24020.41428034 -.00000081  00000+0  00000+0 0  9990
2 39620  65.7278 343.6308 0015147 318.4954  41.3833  2.13103054 76516
COSMOS 2500 (755)       
1 40001U 14032A   24020.12645386 -.00000079  00000+0  00000+0 0  9993
2 40001  65.6658 343.4572 0006529 226.3250 133.6156  2.13105961 74726
COSMOS 2501 (702K)      
1 40315U 14075A   24020.37810830  .00000111  00000+0  00000+0 0  9999
2 40315  63.6288 220.8519 0018022 203.4130 156.5545  2.13101301 71125
COSMOS 2514 (751)       
1 41330U 16008A   24020.35975119 -.00000081  00000+0  00000+0 0  9992
2 41330  65.4616 342.9962 0010505 225.6783 134.2298  2.13102590 61896
COSMOS 2522 (752)       
1 42939U 17055A   24017.85469605  .00000095  00000+0  00000+0 0  9994
2 42939  64.0895 221.9437 0005242 230.7695 129.2312  2.13101884 49195
COSMOS 2527 (756)       
1 43508U 18053A   24019.69048670 -.00000046  00000+0  00000+0 0  9992
2 43508  65.1429 103.3421 0009287 230.7774 129.1720  2.13102164 43536
COSMOS 2529 (757)       
1 43687U 18086A   24018.38201633  .00000099  00000+0  00000+0 0  9998
2 43687  64.3051 222.3978 0006637 265.8809  94.0920  2.13101989 40510
COSMOS 2534 (758)       
1 44299U 19030A   24020.54356712  .00000112  00000+0  00000+0 0  9994
2 44299  64.3777 222.2634 0009335 293.0417  59.4024  2.13101950 36196
COSMOS 2544 (759)       
1 44850U 19088A   24019.63436043 -.00000046  00000+0  00000+0 0  9991
2 44850  65.1291 103.1840 0014019 254.2670 105.6104  2.13102064 31959
COSMOS 2545 (760)       
1 45358U 20018A   24020.30048379 -.00000082  00000+0  00000+0 0  9997
2 45358  64.8022 343.1307 0010767 257.9875 101.8863  2.13102500 29938
COSMOS 2547 (705K)      
1 46805U 20075A   24020.48887939  .00000112  00000+0  00000+0 0  9993
2 46805  64.6059 221.8627 0005310 235.2002 124.8016  2.13102921 25185
COSMOS 2557 (706K)      
1 52984U 22075A   24020.18304534 -.00000080  00000+0  00000+0 0  9997
2 52984  64.7234 345.2795 0013838 283.8346  76.0065  2.13101765 11987
COSMOS 2559 (707K)      
1 54031U 22130A   24020.12547841 -.00000080  00000+0  00000+0 0  9998
2 54031  64.6948 345.4044 0006900 239.1991 120.7284  2.13101070  9957
COSMOS 2564 (761)       
1 54377U 22161A   24019.84855671  .00000111  00000+0  00000+0 0  9999
2 54377  64.7469 221.9620 0007197 206.2548 153.7598  2.13102113  8894
COSMOS 2569 (703K)      
1 57517U 23114A   24020.33623401 -.00000050  00000+0  00000+0 0  9990
2 57517  64.8539 102.3639 0011097 291.4024  68.5120  2.13104246  3532
